0 FENGYUN 1C DEB
1 29889U 99025GK  13281.38412008  .00000443  00000-0  25052-3 0  7673
2 29889 099.5421 074.9759 0162931 112.3155 309.1291 14.09048226346159
0 FENGYUN 1C DEB
1 29889U 99025GK  13282.66266354  .00000317  00000-0  18627-3 0  7687
2 29889 099.5421 076.3298 0162924 108.8008 314.6167 14.09053144346330
0 FENGYUN 1C DEB
1 29889U 99025GK  13283.72602411  .00000214  00000-0  13353-3 0  7691
2 29889 099.5421 077.4557 0162912 105.8794 308.5902 14.09054578346483
0 FENGYUN 1C DEB
1 29889U 99025GK  13285.02245012  .00000199  00000-0  12609-3 0  7703
2 29889 099.5422 078.8284 0162894 102.3185 044.8167 14.09055004346669
0 FENGYUN 1C DEB
1 29889U 99025GK  13286.35487221  .00000311  00000-0  18339-3 0  7713
2 29889 099.5425 080.2393 0162888 098.6606 323.6442 14.09054853346854
0 FENGYUN 1C DEB
1 29889U 99025GK  13287.48727572  .00000472  00000-0  26514-3 0  7727
2 29889 099.5427 081.4384 0162892 095.5564 307.8575 14.09054884347017
0 FENGYUN 1C DEB
1 29889U 99025GK  13288.99392625  .00000664  00000-0  36309-3 0  7738
2 29889 099.5430 083.0337 0162869 091.4239 030.4753 14.09056401347222
0 FENGYUN 1C DEB
1 29889U 99025GK  13290.39620875  .00000698  00000-0  38046-3 0  7744
2 29889 099.5433 084.5186 0162845 087.5732 303.6855 14.09057762347422
0 FENGYUN 1C DEB
1 29889U 99025GK  13291.97557752  .00000616  00000-0  33892-3 0  7757
2 29889 099.5435 086.1909 0162807 083.2300 035.1925 14.09060400347649
0 FENGYUN 1C DEB
1 29889U 99025GK  13293.38458125  .00000501  00000-0  28021-3 0  7760
2 29889 099.5435 087.6829 0162809 079.3603 342.5099 14.09063591347843
0 FENGYUN 1C DEB
1 29889U 99025GK  13294.95761972  .00000379  00000-0  21782-3 0  7772
2 29889 099.5435 089.3488 0162795 075.0454 041.9231 14.09066293348069
